[{"OBJECT_NAME":"GREGOIRE","OBJECT_ID":"2023-084Q","EPOCH":"2026-03-09T22:27:34.471296","MEAN_MOTION":15.35838856,"ECCENTRICITY":0.00062831,"INCLINATION":97.6076,"RA_OF_ASC_NODE":209.2239,"ARG_OF_PERICENTER":318.3511,"MEAN_ANOMALY":41.7253,"EPHEMERIS_TYPE":0,"CLASSIFICATION_TYPE":"U","NORAD_CAT_ID":56946,"ELEMENT_SET_NO":999,"REV_AT_EPOCH":15246,"BSTAR":0.00033169769,"MEAN_MOTION_DOT":0.00011493,"MEAN_MOTION_DDOT":0},{"OBJECT_NAME":"STARLINK-36315","OBJECT_ID":"2026-026L","EPOCH":"2026-03-09T22:00:01.999584","MEAN_MOTION":15.48146499,"ECCENTRICITY":0.0001862,"INCLINATION":97.2849,"RA_OF_ASC_NODE":123.4838,"ARG_OF_PERICENTER":92.9236,"MEAN_ANOMALY":83.2277,"EPHEMERIS_TYPE":0,"CLASSIFICATION_TYPE":"U","NORAD_CAT_ID":67731,"ELEMENT_SET_NO":999,"REV_AT_EPOCH":535,"BSTAR":-0.044727238,"MEAN_MOTION_DOT":-0.02085772,"MEAN_MOTION_DDOT":0}]
